ORBCOMM FM115           
1 41186U 15081H   24221.91686907  .00002416  00000+0  52278-3 0  9991
2 41186  46.9980  83.2353 0000163  75.1094 284.9810 14.60980364462081
ORBCOMM FM108           
1 41187U 15081J   24221.26063516  .00002758  00000+0  64700-3 0  9997
2 41187  47.0038 143.5063 0002761 312.9996  47.0657 14.56816448461223
ORBCOMM FM117           
1 41188U 15081K   24221.91237647  .00002971  00000+0  69411-3 0  9999
2 41188  46.9999 139.2985 0003363 326.4140  33.6532 14.56807722461287
